{
  "type": "FeatureCollection",
  "features": [
    {
      "type": "Feature",
      "properties": {
        "norad_id": 66323,
        "name": "STARLINK-35309",
        "group": "last-30-days",
        "lat": -1.5897984399508205,
        "lon": -146.33281624648293,
        "alt_km": 414.3158783966328,
        "timestamp": "2025-12-04T15:47:52.867278+00:00",
        "meta_object_name": "STARLINK-35309",
        "meta_object_id": "2025-253E",
        "meta_epoch": "2025-12-03T12:44:13.575552",
        "meta_mean_motion": 15.5062735,
        "meta_eccentricity": 0.00017369,
        "meta_inclination": 42.9999,
        "meta_ra_of_asc_node": 38.5588,
        "meta_arg_of_pericenter": 269.0685,
        "meta_mean_anomaly": 90.9976,
        "meta_ephemeris_type": 0,
        "meta_classification_type": "U",
        "meta_norad_cat_id": 66323,
        "meta_element_set_no": 999,
        "meta_rev_at_epoch": 550,
        "meta_bstar": 0.0016514731,
        "meta_mean_motion_dot": 0.00097932,
        "meta_mean_motion_ddot": 0,
        "tle_line1": "1 66323U 25253E   25337.53071268  .00097932  00000+0  16515-2 0  9998",
        "tle_line2": "2 66323  42.9999  38.5588 0001736 269.0685  90.9976 15.50627350  5508"
      },
      "geometry": {
        "type": "Point",
        "coordinates": [
          -146.33281624648293,
          -1.5897984399508205
        ]
      }
    },
    {
      "type": "Feature",
      "properties": {
        "norad_id": 66324,
        "name": "STARLINK-35506",
        "group": "last-30-days",
        "lat": 3.959994821203151,
        "lon": -152.28012823768336,
        "alt_km": 414.2663484542909,
        "timestamp": "2025-12-04T15:47:52.867289+00:00",
        "meta_object_name": "STARLINK-35506",
        "meta_object_id": "2025-253F",
        "meta_epoch": "2025-12-03T12:46:12.432576",
        "meta_mean_motion": 15.5059009,
        "meta_eccentricity": 8.705e-05,
        "meta_inclination": 43.0006,
        "meta_ra_of_asc_node": 38.5692,
        "meta_arg_of_pericenter": 276.2742,
        "meta_mean_anomaly": 83.8019,
        "meta_ephemeris_type": 0,
        "meta_classification_type": "U",
        "meta_norad_cat_id": 66324,
        "meta_element_set_no": 999,
        "meta_rev_at_epoch": 550,
        "meta_bstar": 0.00045167229,
        "meta_mean_motion_dot": 0.00026255,
        "meta_mean_motion_ddot": 0,
        "tle_line1": "1 66324U 25253F   25337.53208834  .00026255  00000+0  45167-3 0  9996",
        "tle_line2": "2 66324  43.0006  38.5692 0000870 276.2742  83.8019 15.50590090  5507"
      },
      "geometry": {
        "type": "Point",
        "coordinates": [
          -152.28012823768336,
          3.959994821203151
        ]
      }
    },
    {
      "type": "Feature",
      "properties": {
        "norad_id": 66325,
        "name": "STARLINK-35504",
        "group": "last-30-days",
        "lat": 40.54029091249159,
        "lon": 145.5357527284743,
        "alt_km": 438.4239117222305,
        "timestamp": "2025-12-04T15:47:52.867303+00:00",
        "meta_object_name": "STARLINK-35504",
        "meta_object_id": "2025-253G",
        "meta_epoch": "2025-12-04T08:00:01.999872",
        "meta_mean_motion": 15.40702268,
        "meta_eccentricity": 0.00010674,
        "meta_inclination": 43.0005,
        "meta_ra_of_asc_node": 34.0191,
        "meta_arg_of_pericenter": 266.4653,
        "meta_mean_anomaly": 196.9248,
        "meta_ephemeris_type": 0,
        "meta_classification_type": "U",
        "meta_norad_cat_id": 66325,
        "meta_element_set_no": 999,
        "meta_rev_at_epoch": 557,
        "meta_bstar": -0.0017776701,
        "meta_mean_motion_dot": -0.0007385,
        "meta_mean_motion_ddot": 0,
        "tle_line1": "1 66325U 25253G   25338.33335648 -.00073850  00000+0 -17777-2 0  9990",
        "tle_line2": "2 66325  43.0005  34.0191 0001067 266.4653 196.9248 15.40702268  5571"
      },
      "geometry": {
        "type": "Point",
        "coordinates": [
          145.5357527284743,
          40.54029091249159
        ]
      }
    },
    {
      "type": "Feature",
      "properties": {
        "norad_id": 66326,
        "name": "STARLINK-35479",
        "group": "last-30-days",
        "lat": -2.370108749366068,
        "lon": -145.49696960437953,
        "alt_km": 415.18755140336725,
        "timestamp": "2025-12-04T15:47:52.867315+00:00",
        "meta_object_name": "STARLINK-35479",
        "meta_object_id": "2025-253H",
        "meta_epoch": "2025-12-04T07:16:50.928672",
        "meta_mean_motion": 15.50510165,
        "meta_eccentricity": 0.00011066,
        "meta_inclination": 43,
        "meta_ra_of_asc_node": 34.0335,
        "meta_arg_of_pericenter": 280.8243,
        "meta_mean_anomaly": 79.2492,
        "meta_ephemeris_type": 0,
        "meta_classification_type": "U",
        "meta_norad_cat_id": 66326,
        "meta_element_set_no": 999,
        "meta_rev_at_epoch": 562,
        "meta_bstar": 0.0020489984,
        "meta_mean_motion_dot": 0.00121446,
        "meta_mean_motion_ddot": 0,
        "tle_line1": "1 66326U 25253H   25338.30336723  .00121446  00000+0  20490-2 0  9992",
        "tle_line2": "2 66326  43.0000  34.0335 0001106 280.8243  79.2492 15.50510165  5620"
      },
      "geometry": {
        "type": "Point",
        "coordinates": [
          -145.49696960437953,
          -2.370108749366068
        ]
      }
    },
    {
      "type": "Feature",
      "properties": {
        "norad_id": 66327,
        "name": "STARLINK-35507",
        "group": "last-30-days",
        "lat": 2.8008756820161005,
        "lon": -151.0285298865669,
        "alt_km": 410.1483321788555,
        "timestamp": "2025-12-04T15:47:52.867328+00:00",
        "meta_object_name": "STARLINK-35507",
        "meta_object_id": "2025-253J",
        "meta_epoch": "2025-12-04T04:13:46.845696",
        "meta_mean_motion": 15.51574581,
        "meta_eccentricity": 0.00075083,
        "meta_inclination": 43.0006,
        "meta_ra_of_asc_node": 34.8059,
        "meta_arg_of_pericenter": 257.8373,
        "meta_mean_anomaly": 102.1647,
        "meta_ephemeris_type": 0,
        "meta_classification_type": "U",
        "meta_norad_cat_id": 66327,
        "meta_element_set_no": 999,
        "meta_rev_at_epoch": 560,
        "meta_bstar": 0.0056023416,
        "meta_mean_motion_dot": 0.00356348,
        "meta_mean_motion_ddot": 0,
        "tle_line1": "1 66327U 25253J   25338.17623664  .00356348  00000+0  56023-2 0  9993",
        "tle_line2": "2 66327  43.0006  34.8059 0007508 257.8373 102.1647 15.51574581  5607"
      },
      "geometry": {
        "type": "Point",
        "coordinates": [
          -151.0285298865669,
          2.8008756820161005
        ]
      }
    },
    {
      "type": "Feature",
      "properties": {
        "norad_id": 66328,
        "name": "STARLINK-35460",
        "group": "last-30-days",
        "lat": 36.18260057787485,
        "lon": 160.40104880727404,
        "alt_km": 439.3241332499647,
        "timestamp": "2025-12-04T15:47:52.867340+00:00",
        "meta_object_name": "STARLINK-35460",
        "meta_object_id": "2025-253K",
        "meta_epoch": "2025-12-04T08:00:01.999872",
        "meta_mean_motion": 15.40710972,
        "meta_eccentricity": 0.00015006,
        "meta_inclination": 43,
        "meta_ra_of_asc_node": 33.9862,
        "meta_arg_of_pericenter": 269.7727,
        "meta_mean_anomaly": 206.0491,
        "meta_ephemeris_type": 0,
        "meta_classification_type": "U",
        "meta_norad_cat_id": 66328,
        "meta_element_set_no": 999,
        "meta_rev_at_epoch": 567,
        "meta_bstar": -0.0021077438,
        "meta_mean_motion_dot": -0.0008738,
        "meta_mean_motion_ddot": 0,
        "tle_line1": "1 66328U 25253K   25338.33335648 -.00087380  00000+0 -21077-2 0  9994",
        "tle_line2": "2 66328  43.0000  33.9862 0001500 269.7727 206.0491 15.40710972  5677"
      },
      "geometry": {
        "type": "Point",
        "coordinates": [
          160.40104880727404,
          36.18260057787485
        ]
      }
    },
    {
      "type": "Feature",
      "properties": {
        "norad_id": 66329,
        "name": "STARLINK-35505",
        "group": "last-30-days",
        "lat": 4.60756192409285,
        "lon": -152.97557110129642,
        "alt_km": 411.4427693813668,
        "timestamp": "2025-12-04T15:47:52.867353+00:00",
        "meta_object_name": "STARLINK-35505",
        "meta_object_id": "2025-253L",
        "meta_epoch": "2025-12-04T07:19:47.007552",
        "meta_mean_motion": 15.51436133,
        "meta_eccentricity": 0.00046666,
        "meta_inclination": 42.9978,
        "meta_ra_of_asc_node": 34.0536,
        "meta_arg_of_pericenter": 264.9317,
        "meta_mean_anomaly": 95.101,
        "meta_ephemeris_type": 0,
        "meta_classification_type": "U",
        "meta_norad_cat_id": 66329,
        "meta_element_set_no": 999,
        "meta_rev_at_epoch": 562,
        "meta_bstar": 0.0037464627,
        "meta_mean_motion_dot": 0.0023319,
        "meta_mean_motion_ddot": 0,
        "tle_line1": "1 66329U 25253L   25338.30540518  .00233190  00000+0  37465-2 0  9994",
        "tle_line2": "2 66329  42.9978  34.0536 0004666 264.9317  95.1010 15.51436133  5623"
      },
      "geometry": {
        "type": "Point",
        "coordinates": [
          -152.97557110129642,
          4.60756192409285
        ]
      }
    }
  ]
}